{"fetched_at":"2026-03-29T16:36:15Z","count":15609,"tles":[{"name":"STARLINK-35845","line1":"1 66366U 25254U   26087.88272248  .00026829  00000+0  91427-3 0  9991","line2":"2 66366  53.1600 143.3413 0001509  86.5234 273.5939 15.30214293 21917","category":"Starlink"}]}